#aV2023 12  1  0  0  0.00000000     288 DD+AD WGS84 FIT  NGA
## 2290 432000.00000000   300.00000000 60279 0.0000000000000
+   32     1  2  3  4  5  6  7  8  9 10 11 12 13 14 15 16 17
+         18 19 20 21 22 23 24 25 26 27 28 29 30 31 32  0  0
+          0  0  0  0  0  0  0  0  0  0  0  0  0  0  0  0  0
+          0  0  0  0  0  0  0  0  0  0  0  0  0  0  0  0  0
+          0  0  0  0  0  0  0  0  0  0  0  0  0  0  0  0  0
++         2  2  2  2  2  2  2  2  2  2  2  2  2  2  2  2  2
++         2  2  2  2  2  2  2  2  2  2  2  2  2  2  2  0  0
++         0  0  0  0  0  0  0  0  0  0  0  0  0  0  0  0  0
++         0  0  0  0  0  0  0  0  0  0  0  0  0  0  0  0  0
++         0  0  0  0  0  0  0  0  0  0  0  0  0  0  0  0  0
%c cc cc ccc ccc cccc cccc cccc cccc ccccc ccccc ccccc ccccc
%c cc cc ccc ccc cccc cccc cccc cccc ccccc ccccc ccccc ccccc
%f  0.0000000  0.000000000  0.00000000000  0.000000000000000
%f  0.0000000  0.000000000  0.00000000000  0.000000000000000
%i    0    0    0    0      0      0      0      0         0
%i    0    0    0    0      0      0      0      0         0
/*      NGA, ST. LOUIS,MO.                                  
/*   EPHEMERIS COMPUTED FROM 2 DAYS OF DATA                 
/*   EPOCHA v8 SMOOTHER                                     
/*   G2139 IERS2010 SATIGS SATAPC                           
*  2023 12  1 21 55  0.00000000
P  1   8046.480475 -18349.195836 -17609.658729    163.484217                    
V  1  19254.642402 -10170.015068  20111.792105      0.003498                    
P  2  13350.991473 -19668.424030 -11125.838505   -521.411128                    
V  2  13470.035984  -6985.525401  27490.095526      0.052006                    
P  3  -1230.040725 -16475.687406 -20964.942092     24.300337                    
V  3  23464.715363  11678.470878 -10522.765033      0.268110                    
P  4   1269.307344 -26378.340641  -2040.438670    228.159015                    
V  4   2850.594217   2593.997790 -31762.572174      0.102500                    
P  5 -12384.844949  10153.450910  21028.515591   -152.513674                    
V  5 -24254.064314 -12038.151819  -8310.708300     -0.014413                    
P  6 -22823.828562   4017.715361 -12997.878771    490.481599                    
V  6  13300.731910  -9935.643343 -26184.389561     -0.109110                    
P  7  -9622.953941 -12445.169855  21895.717305     -1.077802                    
V  7  22621.466373 -14178.402952   1451.376653     -0.097578                    
P  8   5793.816392 -23424.880606  10531.552942   -154.846538                    
V  8   3895.338038  13402.663316  27865.275455     -0.019023                    
P  9  -7489.579045 -23981.943895   8439.567146     13.861233                    
V  9   2075.864186 -11014.096345 -29207.305764      0.115178                    
P 10  24287.821510  10864.331987  -2483.645177    -63.616846                    
V 10   2101.345246   3216.780257  31792.171678     -0.015169                    
P 11 -23739.977884  11624.678809  -2263.384594   -483.592311                    
V 11   1204.160552  -3772.938129 -31729.807836     -0.156384                    
P 12  -1154.512866  16483.293030 -21090.008580   -452.983248                    
V 12 -22587.059886 -13118.534886  -9066.350413     -0.040218                    
P 13 -13029.309035  15737.922339  16648.663595    601.239670                    
V 13    337.044616 -21664.549389  20703.524452      0.039669                    
P 14 -23015.688726 -13436.500109    638.238467    259.050611                    
V 14   2191.849532  -2311.481283  31327.848091      0.106462                    
P 15  -2930.378175  24128.566799   9956.230104    102.704858                    
V 15  -5978.973824 -12579.088818  27606.116778      0.037859                    
P 16  18184.949967  -3857.150611  18822.001014   -412.027473                    
V 16  19896.742368  14194.288641 -15595.626513      0.069511                    
P 17 -12592.749964 -13169.738459 -18839.794225    722.604777                    
V 17   1933.211827 -24830.432328  15836.622521     -0.005514                    
P 18  10530.339492  10941.728149  21818.987613   -494.817318                    
V 18 -23501.032728  14499.241031   3894.831268     -0.104252                    
P 19 -14793.184488  -3838.908735 -21937.913962    406.638715                    
V 19   1887.496820 -27274.431139   3190.560778      0.052376                    
P 20 -22292.818246   3290.865473  13965.885909    398.789610                    
V 20 -16130.032684  -7794.717730 -24176.416711     -0.019221                    
P 21  15535.000420 -19062.160797  -8201.551440    142.751858                    
V 21  11137.929593  -4172.066972  29943.154389     -0.010659                    
P 22 -23503.444017  -9960.074387  -6329.520826     73.679580                    
V 22  -5686.337755  -7187.560214  30599.444216     -0.068884                    
P 23  18840.484288  16320.092068   9453.522916    108.549994                    
V 23 -11544.758660  -3490.956710  28897.078563      0.066674                    
P 24 -11453.339087  20461.223830 -12461.464458   -384.088222                    
V 24 -14170.983557   6880.034855  25552.801070     -0.084789                    
P 25  12036.610019  18396.839160 -15421.668509    479.770429                    
V 25 -17747.086424  -6824.162154 -22202.879449      0.015552                    
P 26  23959.958198    958.201003  11670.431325    212.567526                    
V 26  12580.759474   8581.658078 -25859.934644     -0.028969                    
P 27  12880.849025 -12184.504971  19377.401042    -77.510013                    
V 27   2635.243072  25199.319796  14319.653505     -0.049887                    
P 28  22032.249943  -2640.116944 -14615.527714    -59.368057                    
V 28 -14141.476985  12139.106227 -23552.523147     -0.093289                    
P 29   4687.947333  24756.337718   8193.419555   -610.026343                    
V 29  -2693.710016  10388.919852 -29785.257263      0.001687                    
P 30 -18599.222276  -4578.285676  18626.405667   -462.190672                    
V 30  18975.243516 -13789.668111  15394.459400      0.041879                    
P 31  24343.105536  -8497.419339  -7422.765151   -226.242395                    
V 31  -6483.645989   6795.278069 -29460.679764     -0.003460                    
P 32  14595.707855   8848.928921 -20216.818649   -591.979855                    
V 32    344.933670  26048.026621  11339.931283     -0.040278                    
EOF
